[{"OBJECT_NAME":"IRIDIUM 168","OBJECT_ID":"2019-002C","EPOCH":"2026-03-09T22:03:03.105216","MEAN_MOTION":14.34216679,"ECCENTRICITY":0.00021737,"INCLINATION":86.3975,"RA_OF_ASC_NODE":35.1435,"ARG_OF_PERICENTER":86.4602,"MEAN_ANOMALY":273.6843,"EPHEMERIS_TYPE":0,"CLASSIFICATION_TYPE":"U","NORAD_CAT_ID":43924,"ELEMENT_SET_NO":999,"REV_AT_EPOCH":37474,"BSTAR":0.00012475836,"MEAN_MOTION_DOT":3.69e-6,"MEAN_MOTION_DDOT":0},{"OBJECT_NAME":"FENGYUN 1C DEB","OBJECT_ID":"1999-025BFK","EPOCH":"2026-03-01T00:02:13.996032","MEAN_MOTION":14.28564642,"ECCENTRICITY":0.0035959,"INCLINATION":98.4614,"RA_OF_ASC_NODE":81.7444,"ARG_OF_PERICENTER":158.0525,"MEAN_ANOMALY":202.2206,"EPHEMERIS_TYPE":0,"CLASSIFICATION_TYPE":"U","NORAD_CAT_ID":31065,"ELEMENT_SET_NO":999,"REV_AT_EPOCH":65695,"BSTAR":0.00082602,"MEAN_MOTION_DOT":2.044e-5,"MEAN_MOTION_DDOT":0}]
